{
  "norad_id": 56805,
  "name": "STARLINK-6064",
  "history": [
    {
      "epoch": "2026-03-28T20:14:05.668224Z",
      "apogee_km": 574.0536895226878,
      "perigee_km": 570.0310647028018,
      "latitude_deg": 5.488531385555311e-05,
      "longitude_deg": 146.33194822948306,
      "height_km": 574.4947458994319,
      "semi_major_axis_km": 6950.179377112744,
      "eccentricity": 0.00028939,
      "inclination_deg": 69.9981,
      "raan_deg": 276.1133,
      "arg_perigee_deg": 269.2835,
      "mean_anomaly_deg": 90.7993,
      "mean_motion_rev_day": 14.9833437
    },
    {
      "epoch": "2026-03-28T23:26:21.723648Z",
      "apogee_km": 574.0517926617222,
      "perigee_km": 570.0304196095121,
      "latitude_deg": 4.500168877848353e-05,
      "longitude_deg": 97.79674451003531,
      "height_km": 574.4939799351404,
      "semi_major_axis_km": 6950.178106135617,
      "eccentricity": 0.0002893,
      "inclination_deg": 69.9981,
      "raan_deg": 275.7766,
      "arg_perigee_deg": 269.2689,
      "mean_anomaly_deg": 90.8139,
      "mean_motion_rev_day": 14.98334781
    },
    {
      "epoch": "2026-03-30T05:52:55.101216Z",
      "apogee_km": 574.1308477112398,
      "perigee_km": 569.9872798219421,
      "latitude_deg": 5.5365437684835826e-05,
      "longitude_deg": -3.291857513031295,
      "height_km": 574.4817621576532,
      "semi_major_axis_km": 6950.196063766591,
      "eccentricity": 0.00029809,
      "inclination_deg": 69.998,
      "raan_deg": 272.5773,
      "arg_perigee_deg": 270.1269,
      "mean_anomaly_deg": 89.9549,
      "mean_motion_rev_day": 14.98328974
    },
    {
      "epoch": "2026-03-30T13:53:35.377152Z",
      "apogee_km": 574.1367921768206,
      "perigee_km": 569.978768647492,
      "latitude_deg": -2.1003091009472204e-05,
      "longitude_deg": -124.63040896488535,
      "height_km": 574.482095609484,
      "semi_major_axis_km": 6950.194780412156,
      "eccentricity": 0.00029913,
      "inclination_deg": 69.9979,
      "raan_deg": 271.7356,
      "arg_perigee_deg": 270.0822,
      "mean_anomaly_deg": 89.9994,
      "mean_motion_rev_day": 14.98329389
    },
    {
      "epoch": "2026-03-30T21:54:15.711840Z",
      "apogee_km": 574.1395255862426,
      "perigee_km": 569.9777484387987,
      "latitude_deg": 8.172395780986357e-06,
      "longitude_deg": 114.03083232235295,
      "height_km": 574.4779474448515,
      "semi_major_axis_km": 6950.19563701252,
      "eccentricity": 0.0002994,
      "inclination_deg": 69.9979,
      "raan_deg": 270.8939,
      "arg_perigee_deg": 270.2199,
      "mean_anomaly_deg": 89.8617,
      "mean_motion_rev_day": 14.98329112
    }
  ]
}